OBJECT_NAME,OBJECT_ID,EPOCH,MEAN_MOTION,ECCENTRICITY,INCLINATION,RA_OF_ASC_NODE,ARG_OF_PERICENTER,MEAN_ANOMALY,EPHEMERIS_TYPE,CLASSIFICATION_TYPE,NORAD_CAT_ID,ELEMENT_SET_NO,REV_AT_EPOCH,BSTAR,MEAN_MOTION_DOT,MEAN_MOTION_DDOT
BEIDOU-2 M4,2012-018B,2026-07-10T05:02:43.446048,1.86229687,.0012086,55.6367,303.3120,272.7348,87.1429,0,U,38251,999,9637,0,-.69E-6,0
ARIRANG-3 (KOMPSAT-3),2012-025B,2026-07-13T04:09:05.998176,14.62228028,.0006335,98.1183,151.1868,44.2080,315.9627,0,U,38338,999,75514,.48218E-4,.196E-5,0
METOP-B,2012-049A,2026-07-13T03:55:56.820576,14.21446026,.0001067,98.6491,245.1430,267.9479,92.1576,0,U,38771,999,71695,.42897E-4,.5E-6,0
SJ-9A,2012-056A,2026-07-13T03:57:35.306208,14.85526288,.0025796,97.6727,165.1801,168.3869,191.7947,0,U,38860,999,70344,.69953E-4,.555E-5,0
COSMOS 2484 (RODNIK-S 6),2013-001C,2026-07-13T03:29:28.184640,12.42940557,.0025752,82.4998,205.7534,340.1983,19.8095,0,U,39059,999,61178,.7347E-3,.112E-5,0
SARAL,2013-009A,2026-07-13T03:46:29.595072,14.32895462,.0001573,98.5554,20.3961,171.9225,188.1985,0,U,39086,999,69932,.30656E-4,.4E-6,0
STRAND-1,2013-009E,2026-07-12T11:13:41.134080,14.37177891,.00092621,98.3932,13.0813,148.5894,211.5848,0,U,39090,999,70069,.64298601E-4,.149E-5,0
BRITE-AUSTRIA,2013-009F,2026-07-12T23:30:06.302304,14.36551984,.0010641,98.4006,12.7781,156.9749,203.1916,0,U,39091,999,70075,.44937E-4,.89E-6,0
GAOFEN-1,2013-018A,2026-07-13T05:18:44.183808,14.76516224,.0016923,97.9092,265.7586,177.5201,182.6096,0,U,39150,999,71208,.12084E-4,.33E-6,0
NEE-01 PEGASO,2013-018B,2026-07-12T23:44:03.535584,14.93783715,.0013696,98.1249,338.9978,80.7615,279.5152,0,U,39151,999,71455,.10536E-3,.1057E-4,0
PROBA-V,2013-021A,2026-07-12T21:55:34.889664,14.23603242,.000532,98.3604,171.2523,65.3882,294.7851,0,U,39159,999,68477,.30983E-4,.3E-6,0
ARIRANG-5 (KOMPSAT-5),2013-042A,2026-07-13T04:05:54.858048,15.04523185,.0005602,97.6211,20.5067,64.1015,296.0789,0,U,39227,999,70776,.44279E-4,.559E-5,0
GONETS-M 5,2013-048A,2026-07-13T04:42:04.794912,12.42892692,.0017274,82.4846,327.1669,153.8155,206.3801,0,U,39249,999,58211,.11884E-3,.26E-6,0
GONETS-M 7,2013-048C,2026-07-13T03:48:03.487680,12.42915295,.0018046,82.4912,330.1261,155.1677,205.0275,0,U,39251,999,58206,-.46203E-3,-.54E-6,0
FENGYUN 3C,2013-052A,2026-07-13T04:37:51.159936,14.15760465,.001376,98.4997,166.8760,312.1449,47.8556,0,U,39260,999,66224,.31208E-4,.2E-6,0
CASSIOPE,2013-055A,2026-07-13T02:54:57.464352,15.27330715,.0283348,80.9124,35.1684,334.9438,23.8257,0,U,39265,999,67162,.2467E-3,.23006E-3,-.52902E-6
APRIZESAT 7,2013-066A,2026-07-13T04:22:59.008224,14.91616707,.0037107,97.7721,147.0313,123.7441,236.7322,0,U,39416,999,68510,.49425E-4,.445E-5,0
ZACUBE-1 (TSHEPISOSAT),2013-066B,2026-07-12T22:26:41.744832,15.01323430,.0043901,97.8010,156.3996,162.4582,197.8170,0,U,39417,999,68459,.1153E-3,.145E-4,0
APRIZESAT 8,2013-066K,2026-07-12T20:02:20.010048,14.87694379,.0045293,97.8228,140.9470,199.7165,160.2302,0,U,39425,999,68348,.50456E-4,.411E-5,0
TRITON-1,2013-066M,2026-07-13T03:49:42.966048,14.81789601,.0090397,97.8228,103.3738,148.6807,211.9835,0,U,39427,999,67793,.89471E-4,.701E-5,0
